{"type": "FeatureCollection", "features": [{"type": "Feature", "properties": {"norad_id": 2807, "name": "OPS 7218 (TRANSIT 16)", "group": "nnss", "lat": 73.14129933703342, "lon": -5.138061046705013, "alt_km": 1047.394396973351, "timestamp": "2025-12-19T18:58:41.856473+00:00", "meta": {"OBJECT_NAME": "OPS 7218 (TRANSIT 16)", "OBJECT_ID": "1967-048A", "EPOCH": "2025-12-19T06:13:36.695136", "MEAN_MOTION": 13.50723591, "ECCENTRICITY": 0.00221335, "INCLINATION": 89.6731, "RA_OF_ASC_NODE": 353.8, "ARG_OF_PERICENTER": 96.6947, "MEAN_ANOMALY": 274.5627, "EPHEMERIS_TYPE": 0, "CLASSIFICATION_TYPE": "U", "NORAD_CAT_ID": 2807, "ELEMENT_SET_NO": 999, "REV_AT_EPOCH": 88364, "BSTAR": 0.00016003604, "MEAN_MOTION_DOT": 1.14e-06, "MEAN_MOTION_DDOT": 0}, "tle": {"line1": "1 02807U 67048A   25353.25945249  .00000114  00000+0  16004-3 0  9999", "line2": "2 02807  89.6731 353.8000 0022133  96.6947 274.5627 13.50723591883642"}}, "geometry": {"type": "Point", "coordinates": [-5.138061046705013, 73.14129933703342]}}, {"type": "Feature", "properties": {"norad_id": 2965, "name": "OPS 4947 (TRANSIT 17)", "group": "nnss", "lat": -27.052249796484524, "lon": -155.7182712416415, "alt_km": 1030.8701869052766, "timestamp": "2025-12-19T18:58:41.856495+00:00", "meta": {"OBJECT_NAME": "OPS 4947 (TRANSIT 17)", "OBJECT_ID": "1967-092A", "EPOCH": "2025-12-19T04:05:22.989408", "MEAN_MOTION": 13.5345517, "ECCENTRICITY": 0.00466173, "INCLINATION": 89.249, "RA_OF_ASC_NODE": 23.9452, "ARG_OF_PERICENTER": 215.3411, "MEAN_ANOMALY": 210.8168, "EPHEMERIS_TYPE": 0, "CLASSIFICATION_TYPE": "U", "NORAD_CAT_ID": 2965, "ELEMENT_SET_NO": 999, "REV_AT_EPOCH": 87184, "BSTAR": 0.00019991409, "MEAN_MOTION_DOT": 1.46e-06, "MEAN_MOTION_DDOT": 0}, "tle": {"line1": "1 02965U 67092A   25353.17040497  .00000146  00000+0  19991-3 0  9998", "line2": "2 02965  89.2490  23.9452 0046617 215.3411 210.8168 13.53455170871840"}}, "geometry": {"type": "Point", "coordinates": [-155.7182712416415, -27.052249796484524]}}, {"type": "Feature", "properties": {"norad_id": 3133, "name": "OPS 7034 (TRANSIT 18)", "group": "nnss", "lat": -51.45808521804743, "lon": -86.3055874068145, "alt_km": 1125.5114150947238, "timestamp": "2025-12-19T18:58:41.856508+00:00", "meta": {"OBJECT_NAME": "OPS 7034 (TRANSIT 18)", "OBJECT_ID": "1968-012A", "EPOCH": "2025-12-19T05:49:59.436192", "MEAN_MOTION": 13.51567168, "ECCENTRICITY": 0.00744825, "INCLINATION": 90.0283, "RA_OF_ASC_NODE": 273.6573, "ARG_OF_PERICENTER": 150.3733, "MEAN_ANOMALY": 14.5612, "EPHEMERIS_TYPE": 0, "CLASSIFICATION_TYPE": "U", "NORAD_CAT_ID": 3133, "ELEMENT_SET_NO": 999, "REV_AT_EPOCH": 57006, "BSTAR": 0.00015105072, "MEAN_MOTION_DOT": 1.1e-06, "MEAN_MOTION_DDOT": 0}, "tle": {"line1": "1 03133U 68012A   25353.24304903  .00000110  00000+0  15105-3 0  9996", "line2": "2 03133  90.0283 273.6573 0074482 150.3733  14.5612 13.51567168570064"}}, "geometry": {"type": "Point", "coordinates": [-86.3055874068145, -51.45808521804743]}}, {"type": "Feature", "properties": {"norad_id": 4507, "name": "NNSS 19 (TRANSIT 19)", "group": "nnss", "lat": -86.56177530266032, "lon": -125.37639043084103, "alt_km": 948.1113062579161, "timestamp": "2025-12-19T18:58:41.856520+00:00", "meta": {"OBJECT_NAME": "NNSS 19 (TRANSIT 19)", "OBJECT_ID": "1970-067A", "EPOCH": "2025-12-19T01:37:32.174400", "MEAN_MOTION": 13.51316318, "ECCENTRICITY": 0.01702732, "INCLINATION": 90.0051, "RA_OF_ASC_NODE": 234.5383, "ARG_OF_PERICENTER": 274.8647, "MEAN_ANOMALY": 83.3083, "EPHEMERIS_TYPE": 0, "CLASSIFICATION_TYPE": "U", "NORAD_CAT_ID": 4507, "ELEMENT_SET_NO": 999, "REV_AT_EPOCH": 72307, "BSTAR": 0.00012869775, "MEAN_MOTION_DOT": 9.9e-07, "MEAN_MOTION_DDOT": 0}, "tle": {"line1": "1 04507U 70067A   25353.06773350  .00000099  00000+0  12870-3 0  9993", "line2": "2 04507  90.0051 234.5383 0170273 274.8647  83.3083 13.51316318723075"}}, "geometry": {"type": "Point", "coordinates": [-125.37639043084103, -86.56177530266032]}}, {"type": "Feature", "properties": {"norad_id": 6909, "name": "NNSS 20 (TRANSIT 20)", "group": "nnss", "lat": 42.063313373725265, "lon": 74.8186634966938, "alt_km": 970.1401221692258, "timestamp": "2025-12-19T18:58:41.856532+00:00", "meta": {"OBJECT_NAME": "NNSS 20 (TRANSIT 20)", "OBJECT_ID": "1973-081A", "EPOCH": "2025-12-19T04:18:57.343104", "MEAN_MOTION": 13.71437396, "ECCENTRICITY": 0.01564672, "INCLINATION": 89.8562, "RA_OF_ASC_NODE": 254.9577, "ARG_OF_PERICENTER": 59.2456, "MEAN_ANOMALY": 302.4009, "EPHEMERIS_TYPE": 0, "CLASSIFICATION_TYPE": "U", "NORAD_CAT_ID": 6909, "ELEMENT_SET_NO": 999, "REV_AT_EPOCH": 80449, "BSTAR": 0.00022822694, "MEAN_MOTION_DOT": 2.35e-06, "MEAN_MOTION_DDOT": 0}, "tle": {"line1": "1 06909U 73081A   25353.17983036  .00000235  00000+0  22823-3 0  9997", "line2": "2 06909  89.8562 254.9577 0156467  59.2456 302.4009 13.71437396804490"}}, "geometry": {"type": "Point", "coordinates": [74.8186634966938, 42.063313373725265]}}, {"type": "Feature", "properties": {"norad_id": 10457, "name": "TRANSAT", "group": "nnss", "lat": -38.62587452906757, "lon": -101.37116261614526, "alt_km": 1069.9367503651374, "timestamp": "2025-12-19T18:58:41.856543+00:00", "meta": {"OBJECT_NAME": "TRANSAT", "OBJECT_ID": "1977-106A", "EPOCH": "2025-12-19T05:42:04.199040", "MEAN_MOTION": 13.48944505, "ECCENTRICITY": 0.00260175, "INCLINATION": 89.648, "RA_OF_ASC_NODE": 78.367, "ARG_OF_PERICENTER": 170.8394, "MEAN_ANOMALY": 242.5458, "EPHEMERIS_TYPE": 0, "CLASSIFICATION_TYPE": "U", "NORAD_CAT_ID": 10457, "ELEMENT_SET_NO": 999, "REV_AT_EPOCH": 36831, "BSTAR": 9.3687484e-05, "MEAN_MOTION_DOT": 6.9e-07, "MEAN_MOTION_DDOT": 0}, "tle": {"line1": "1 10457U 77106A   25353.23754860  .00000069  00000+0  93687-4 0  9992", "line2": "2 10457  89.6480  78.3670 0026017 170.8394 242.5458 13.48944505368317"}}, "geometry": {"type": "Point", "coordinates": [-101.37116261614526, -38.62587452906757]}}, {"type": "Feature", "properties": {"norad_id": 12458, "name": "NOVA 1", "group": "nnss", "lat": -9.536530551752694, "lon": -88.68963157088237, "alt_km": 1178.9526996712584, "timestamp": "2025-12-19T18:58:41.856554+00:00", "meta": {"OBJECT_NAME": "NOVA 1", "OBJECT_ID": "1981-044A", "EPOCH": "2025-12-19T05:27:45.320832", "MEAN_MOTION": 13.23278978, "ECCENTRICITY": 0.00158869, "INCLINATION": 89.8528, "RA_OF_ASC_NODE": 91.2936, "ARG_OF_PERICENTER": 88.0892, "MEAN_ANOMALY": 299.9525, "EPHEMERIS_TYPE": 0, "CLASSIFICATION_TYPE": "U", "NORAD_CAT_ID": 12458, "ELEMENT_SET_NO": 999, "REV_AT_EPOCH": 15272, "BSTAR": 0.00010592238, "MEAN_MOTION_DOT": 5.4e-07, "MEAN_MOTION_DDOT": 0}, "tle": {"line1": "1 12458U 81044A   25353.22760788  .00000054  00000+0  10592-3 0  9993", "line2": "2 12458  89.8528  91.2936 0015886  88.0892 299.9525 13.23278978152723"}}, "geometry": {"type": "Point", "coordinates": [-88.68963157088237, -9.536530551752694]}}, {"type": "Feature", "properties": {"norad_id": 15362, "name": "NOVA 3", "group": "nnss", "lat": 56.27593434525907, "lon": 80.43470068815924, "alt_km": 1173.4238426642942, "timestamp": "2025-12-19T18:58:41.856565+00:00", "meta": {"OBJECT_NAME": "NOVA 3", "OBJECT_ID": "1984-110A", "EPOCH": "2025-12-19T06:15:39.981024", "MEAN_MOTION": 13.23045253, "ECCENTRICITY": 0.00300483, "INCLINATION": 90.1221, "RA_OF_ASC_NODE": 80.6115, "ARG_OF_PERICENTER": 313.2498, "MEAN_ANOMALY": 100.3997, "EPHEMERIS_TYPE": 0, "CLASSIFICATION_TYPE": "U", "NORAD_CAT_ID": 15362, "ELEMENT_SET_NO": 999, "REV_AT_EPOCH": 98785, "BSTAR": 9.5268173e-05, "MEAN_MOTION_DOT": 4.8e-07, "MEAN_MOTION_DDOT": 0}, "tle": {"line1": "1 15362U 84110A   25353.26087941  .00000048  00000+0  95268-4 0  9991", "line2": "2 15362  90.1221  80.6115 0030048 313.2498 100.3997 13.23045253987854"}}, "geometry": {"type": "Point", "coordinates": [80.43470068815924, 56.27593434525907]}}, {"type": "Feature", "properties": {"norad_id": 15935, "name": "OSCAR 30", "group": "nnss", "lat": 71.4624618724595, "lon": -79.54334138531618, "alt_km": 1025.1888658142725, "timestamp": "2025-12-19T18:58:41.856575+00:00", "meta": {"OBJECT_NAME": "OSCAR 30", "OBJECT_ID": "1985-066A", "EPOCH": "2025-12-19T06:00:30.951936", "MEAN_MOTION": 13.36079241, "ECCENTRICITY": 0.01692422, "INCLINATION": 90.1656, "RA_OF_ASC_NODE": 99.9537, "ARG_OF_PERICENTER": 65.7372, "MEAN_ANOMALY": 323.6687, "EPHEMERIS_TYPE": 0, "CLASSIFICATION_TYPE": "U", "NORAD_CAT_ID": 15935, "ELEMENT_SET_NO": 999, "REV_AT_EPOCH": 96540, "BSTAR": 0.00010997236, "MEAN_MOTION_DOT": 7.1e-07, "MEAN_MOTION_DDOT": 0}, "tle": {"line1": "1 15935U 85066A   25353.25035824  .00000071  00000+0  10997-3 0  9991", "line2": "2 15935  90.1656  99.9537 0169242  65.7372 323.6687 13.36079241965403"}}, "geometry": {"type": "Point", "coordinates": [-79.54334138531618, 71.4624618724595]}}, {"type": "Feature", "properties": {"norad_id": 15936, "name": "OSCAR 24", "group": "nnss", "lat": -0.843810514875647, "lon": -87.57254784036566, "alt_km": 1169.4603875702678, "timestamp": "2025-12-19T18:58:41.856586+00:00", "meta": {"OBJECT_NAME": "OSCAR 24", "OBJECT_ID": "1985-066B", "EPOCH": "2025-12-19T05:39:09.152640", "MEAN_MOTION": 13.35936599, "ECCENTRICITY": 0.01703727, "INCLINATION": 90.1792, "RA_OF_ASC_NODE": 92.4203, "ARG_OF_PERICENTER": 72.2157, "MEAN_ANOMALY": 317.8855, "EPHEMERIS_TYPE": 0, "CLASSIFICATION_TYPE": "U", "NORAD_CAT_ID": 15936, "ELEMENT_SET_NO": 999, "REV_AT_EPOCH": 96730, "BSTAR": 9.8903992e-05, "MEAN_MOTION_DOT": 6.5e-07, "MEAN_MOTION_DDOT": 0}, "tle": {"line1": "1 15936U 85066B   25353.23552260  .00000065  00000+0  98904-4 0  9996", "line2": "2 15936  90.1792  92.4203 0170372  72.2157 317.8855 13.35936599967303"}}, "geometry": {"type": "Point", "coordinates": [-87.57254784036566, -0.843810514875647]}}]}